[{"OBJECT_NAME":"METOP-C","OBJECT_ID":"2018-087A","EPOCH":"2026-03-09T21:24:06.212448","MEAN_MOTION":14.21497031,"ECCENTRICITY":0.0002203,"INCLINATION":98.6765,"RA_OF_ASC_NODE":130.2612,"ARG_OF_PERICENTER":99.586,"MEAN_ANOMALY":260.5566,"EPHEMERIS_TYPE":0,"CLASSIFICATION_TYPE":"U","NORAD_CAT_ID":43689,"ELEMENT_SET_NO":999,"REV_AT_EPOCH":38072,"BSTAR":8.1967538e-5,"MEAN_MOTION_DOT":1.36e-6,"MEAN_MOTION_DDOT":0},{"OBJECT_NAME":"CZ-6A DEB","OBJECT_ID":"2024-140WF","EPOCH":"2026-03-09T13:24:05.639040","MEAN_MOTION":14.11123428,"ECCENTRICITY":0.0105,"INCLINATION":88.8456,"RA_OF_ASC_NODE":277.123,"ARG_OF_PERICENTER":186.3458,"MEAN_ANOMALY":173.6406,"EPHEMERIS_TYPE":0,"CLASSIFICATION_TYPE":"U","NORAD_CAT_ID":61366,"ELEMENT_SET_NO":999,"REV_AT_EPOCH":7760,"BSTAR":0.0021083705,"MEAN_MOTION_DOT":4.011e-5,"MEAN_MOTION_DDOT":0}]
